COSMOS 2426 (717)       
1 29671U 06062B   20103.67777713  .00000028  00000-0  10000-3 0  9994
2 29671  64.9948 270.1333 0019802 170.1340  51.2204  2.12962358103491
COSMOS 2433 (720)       
1 32275U 07052A   20104.41982068 -.00000074  00000-0  10000-3 0  9994
2 32275  65.9633  31.0872 0003981 280.6903 256.0576  2.13104357 97028
COSMOS 2432 (719)       
1 32276U 07052B   20104.15716894 -.00000073  00000-0  10000-3 0  9997
2 32276  65.9741  31.1834 0012377 329.3771 316.2034  2.13103745 97018
COSMOS 2434 (721)       
1 32393U 07065A   20104.14933528  .00000029  00000-0  00000+0 0  9990
2 32393  64.5984 268.6578 0005163  86.9207 129.8190  2.13103054 95729
COSMOS 2436 (723)       
1 32395U 07065C   20103.77568749  .00000028  00000-0  10000-3 0  9993
2 32395  64.6078 268.7203 0015075   8.3031  58.0446  2.13102990 95655
COSMOS 2456 (730)       
1 36111U 09070A   20104.49177714  .00000014  00000-0  00000+0 0  9999
2 36111  64.2198 148.3165 0005440 306.7368 346.1178  2.13102842 80391
COSMOS 2457 (733)       
1 36112U 09070B   20103.64281847  .00000017  00000-0  00000+0 0  9992
2 36112  64.2035 148.2413 0004992 185.1430 300.0075  2.13101464 80380
COSMOS 2459 (731)       
1 36400U 10007A   20103.82317044 -.00000073  00000-0  10000-3 0  9991
2 36400  65.8658  30.0865 0027315 348.5652 305.6282  2.13105198 78737
COSMOS 2461 (735)       
1 36401U 10007B   20103.47853383 -.00000071  00000-0  10000-3 0  9992
2 36401  65.8582  30.0685 0007080  47.6805 250.9571  2.13102049 78722
COSMOS 2460 (732)       
1 36402U 10007C   20103.95301587 -.00000074  00000-0  10000-3 0  9993
2 36402  65.8476  30.0125 0001947 331.1937  10.7061  2.13101453 78732
COSMOS 2464 (736)       
1 37139U 10041C   20104.11956069  .00000028  00000-0  00000-0 0  9993
2 37139  64.2002 268.1314 0027442  14.9712  43.0222  2.13100737 74814
COSMOS 2474 (742)       
1 37829U 11055A   20103.98618712  .00000015  00000-0  00000-0 0  9995
2 37829  64.5398 149.3319 0010017 247.7654 232.2711  2.13101769 66381
COSMOS 2476 (744)       
1 37867U 11064A   20103.62267933  .00000017  00000-0  00000+0 0  9994
2 37867  64.5212 149.3909 0020664 241.1640   6.2344  2.13101959 65724
COSMOS 2477 (745)       
1 37868U 11064B   20104.48891582  .00000014  00000-0  00000+0 0  9990
2 37868  64.5283 149.4170 0018391 242.5238 127.9502  2.13101761 65702
COSMOS 2475 (743)       
1 37869U 11064C   20104.17895404  .00000014  00000-0  00000-0 0  9995
2 37869  64.5352 149.4280 0022495 262.5669 187.4368  2.13101894 65700
COSMOS 2485 (747)       
1 39155U 13019A   20104.55348815  .00000013  00000-0  00000+0 0  9996
2 39155  64.6878 149.6125 0021120 236.8241  49.2490  2.13101882 54210
COSMOS 2492 (754)       
1 39620U 14012A   20103.46709281 -.00000072  00000-0  10000-3 0  9995
2 39620  65.7382  29.8197 0015529 325.6776 242.0554  2.13103345 47147
COSMOS 2500 (755)       
1 40001U 14032A   20104.22527647 -.00000076  00000-0  00000-0 0  9991
2 40001  65.6787  29.7147 0005484 224.3168  65.7594  2.13102696 45378
COSMOS 2501 (702K)      
1 40315U 14075A   20104.29428753  .00000027  00000-0  00000-0 0  9996
2 40315  63.9177 269.0935 0015264 203.8495 294.6728  2.13098525 41784
COSMOS 2514 (751)       
1 41330U 16008A   20103.88811712 -.00000074  00000-0  00000-0 0  9990
2 41330  65.4803  29.6161 0009220 227.6005 346.1226  2.13103108 32535
COSMOS 2516 (753)       
1 41554U 16032A   20103.78010942  .00000026  00000-0  00000+0 0  9995
2 41554  64.1420 269.1673 0010684 212.2086 169.3940  2.13101747 30148
COSMOS 2522 (752)       
1 42939U 17055A   20103.98558622  .00000027  00000-0  00000-0 0  9995
2 42939  64.3735 269.3186 0005122 246.5619 159.2409  2.13101935 19909
COSMOS 2527 (756)       
1 43508U 18053A   20104.04403832  .00000015  00000-0  00000-0 0  9994
2 43508  64.8532 149.4648 0008552 239.4092 242.9407  2.13102613 14197
COSMOS 2529 (757)       
1 43687U 18086A   20104.24109347  .00000029  00000-0  00000+0 0  9998
2 43687  64.5860 269.4124 0007824 278.0518 279.3889  2.13102059 11213
COSMOS 2534 (758)       
1 44299U 19030A   20104.08187721  .00000029  00000-0  00000-0 0  9993
2 44299  64.6541 269.2283 0011399 297.7235 272.6425  2.13102022  6856
